0 SL-12 R/B(2)
1 26939U 01045D   13280.93874334  .00000073  00000-0  00000+0 0  4268
2 26939 009.0995 051.6489 0023887 266.0710 090.6512 01.00314479 44365
0 SL-12 R/B(2)
1 26939U 01045D   13283.91439214  .00000062  00000-0  00000+0 0  4272
2 26939 009.1051 051.6146 0024011 265.7734 085.6014 01.00315958 44398
0 SL-12 R/B(2)
1 26939U 01045D   13286.70843216  .00000055  00000-0  00000+0 0  4286
2 26939 009.1102 051.5820 0024179 265.6523 014.8006 01.00317311 44427
0 SL-12 R/B(2)
1 26939U 01045D   13288.92042012  .00000052  00000-0  00000+0 0  4295
2 26939 009.1142 051.5560 0024316 265.7544 093.5772 01.00318132 44458
0 SL-12 R/B(2)
1 26939U 01045D   13290.96817534  .00000052  00000-0  00000+0 0  4303
2 26939 009.1179 051.5318 0024405 265.9763 112.9295 01.00318945 44473
0 SL-12 R/B(2)
1 26939U 01045D   13293.92326791  .00000052  00000-0  00000+0 0  4313
2 26939 009.1233 051.4971 0024483 266.3590 099.8313 01.00319821 44509
